HIMAWARI-8              
1 40267U 14060A   23254.56205574 -.00000287  00000+0  00000+0 0  9996
2 40267   0.0240 160.8949 0000938  63.7707 108.6504  1.00269703 32630
